start=new Date('2022-12-25T00:00:00.000Z').valueOf();
sats=[{"REV_AT_EPOCH":"5183","EPOCH":"2022-12-24T19:23:52.534752","INCLINATION":"53.2176","DECAY_DATE":null,"BSTAR":"0.00002839600000","PERIAPSIS":"537.805","FILE":"3721442","COUNTRY_CODE":"US","MEAN_MOTION_DOT":"0.00000163","APOAPSIS":"541.674","RCS_SIZE":"LARGE","SEMIMAJOR_AXIS":"6917.874","CENTER_NAME":"EARTH","MEAN_ANOMALY":"316.3750","RA_OF_ASC_NODE":"165.3998","TIME_SYSTEM":"UTC","MEAN_MOTION_DDOT":"0.0000000000000","NORAD_CAT_ID":"51151","LAUNCH_DATE":"2022-01-19","MEAN_ELEMENT_THEORY":"SGP4","PERIOD":"95.437","TLE_LINE1":"1 51151U 22005AZ  22358.80824693  .00000163  00000-0  28396-4 0  9994","MEAN_MOTION":"15.08841994","GP_ID":"221379866","ELEMENT_SET_NO":"999","SITE":"AFETR","OBJECT_ID":"2022-005AZ","EPHEMERIS_TYPE":"0","ARG_OF_PERICENTER":"43.7463","REF_FRAME":"TEME","TLE_LINE2":"2 51151  53.2176 165.3998 0002796  43.7463 316.3750 15.08841994 51832","OBJECT_NAME":"STARLINK-3361","CLASSIFICATION_TYPE":"U","OBJECT_TYPE":"PAYLOAD","ECCENTRICITY":"0.00027960"},{"TLE_LINE2":"2 51152  53.2153 165.3940 0002889  42.2271 317.8943 15.08850878 51830","OBJECT_NAME":"STARLINK-3364","ARG_OF_PERICENTER":"42.2271","REF_FRAME":"TEME","CLASSIFICATION_TYPE":"U","OBJECT_TYPE":"PAYLOAD","ECCENTRICITY":"0.00028890","GP_ID":"221380116","SITE":"AFETR","ELEMENT_SET_NO":"999","EPHEMERIS_TYPE":"0","OBJECT_ID":"2022-005BA","TLE_LINE1":"1 51152U 22005BA  22358.81192349  .00003656  00000-0  24761-3 0  9993","MEAN_MOTION":"15.08850878","LAUNCH_DATE":"2022-01-19","NORAD_CAT_ID":"51152","MEAN_ELEMENT_THEORY":"SGP4","PERIOD":"95.437","APOAPSIS":"541.711","RCS_SIZE":"LARGE","SEMIMAJOR_AXIS":"6917.847","CENTER_NAME":"EARTH","MEAN_ANOMALY":"317.8943","RA_OF_ASC_NODE":"165.3940","MEAN_MOTION_DDOT":"0.0000000000000","TIME_SYSTEM":"UTC","PERIAPSIS":"537.714","BSTAR":"0.00024761000000","DECAY_DATE":null,"COUNTRY_CODE":"US","FILE":"3721442","MEAN_MOTION_DOT":"0.00003656","REV_AT_EPOCH":"5183","INCLINATION":"53.2153","EPOCH":"2022-12-24T19:29:10.189536"},{"ECCENTRICITY":"0.00030720","OBJECT_TYPE":"PAYLOAD","CLASSIFICATION_TYPE":"U","OBJECT_NAME":"STARLINK-3167","TLE_LINE2":"2 51460  53.2155 135.9382 0003072  42.4632 317.6598 15.08842500 50044","REF_FRAME":"TEME","ARG_OF_PERICENTER":"42.4632","OBJECT_ID":"2022-010E","EPHEMERIS_TYPE":"0","SITE":"AFETR","ELEMENT_SET_NO":"999","GP_ID":"221380371","MEAN_MOTION":"15.08842500","TLE_LINE1":"1 51460U 22010E   22358.69324365  .00000649  00000-0  58885-4 0  9996","PERIOD":"95.437","MEAN_ELEMENT_THEORY":"SGP4","LAUNCH_DATE":"2022-02-03","NORAD_CAT_ID":"51460","MEAN_MOTION_DDOT":"0.0000000000000","TIME_SYSTEM":"UTC","RA_OF_ASC_NODE":"135.9382","CENTER_NAME":"EARTH","SEMIMAJOR_AXIS":"6917.873","MEAN_ANOMALY":"317.6598","APOAPSIS":"541.863","RCS_SIZE":"LARGE","MEAN_MOTION_DOT":"0.00000649","COUNTRY_CODE":"US","FILE":"3721442","PERIAPSIS":"537.613","DECAY_DATE":null,"BSTAR":"0.00005888500000","INCLINATION":"53.2155","EPOCH":"2022-12-24T16:38:16.251360","REV_AT_EPOCH":"5004"},{"SITE":"AFETR","ELEMENT_SET_NO":"999","OBJECT_ID":"2022-010F","EPHEMERIS_TYPE":"0","GP_ID":"221380621","OBJECT_TYPE":"PAYLOAD","ECCENTRICITY":"0.00022310","TLE_LINE2":"2 51461  53.2150 135.5601 0002231  38.9551 321.1601 15.08843242 50056","OBJECT_NAME":"STARLINK-3181","REF_FRAME":"TEME","ARG_OF_PERICENTER":"38.9551","CLASSIFICATION_TYPE":"U","MEAN_ELEMENT_THEORY":"SGP4","PERIOD":"95.437","NORAD_CAT_ID":"51461","LAUNCH_DATE":"2022-02-03","MEAN_MOTION":"15.08843242","TLE_LINE1":"1 51461U 22010F   22358.77788156  .00000639  00000-0  58238-4 0  9999","RA_OF_ASC_NODE":"135.5601","MEAN_MOTION_DDOT":"0.0000000000000","TIME_SYSTEM":"UTC","RCS_SIZE":"LARGE","APOAPSIS":"541.279","MEAN_ANOMALY":"321.1601","SEMIMAJOR_AXIS":"6917.870","CENTER_NAME":"EARTH","INCLINATION":"53.2150","EPOCH":"2022-12-24T18:40:08.966784","REV_AT_EPOCH":"5005","COUNTRY_CODE":"US","FILE":"3721442","MEAN_MOTION_DOT":"0.00000639","PERIAPSIS":"538.192","BSTAR":"0.00005823800000","DECAY_DATE":null},{"LAUNCH_DATE":"2022-02-03","NORAD_CAT_ID":"51462","PERIOD":"95.437","MEAN_ELEMENT_THEORY":"SGP4","TLE_LINE1":"1 51462U 22010G   22358.77420525  .00002343  00000-0  16528-3 0  9992","MEAN_MOTION":"15.08848358","GP_ID":"221381373","EPHEMERIS_TYPE":"0","OBJECT_ID":"2022-010G","SITE":"AFETR","ELEMENT_SET_NO":"999","CLASSIFICATION_TYPE":"U","REF_FRAME":"TEME","ARG_OF_PERICENTER":"59.3547","TLE_LINE2":"2 51462  53.2139 135.5744 0003073  59.3547 300.7748 15.08848358 50057","OBJECT_NAME":"STARLINK-3166","ECCENTRICITY":"0.00030730","OBJECT_TYPE":"PAYLOAD","REV_AT_EPOCH":"5005","EPOCH":"2022-12-24T18:34:51.333600","INCLINATION":"53.2139","BSTAR":"0.00016528000000","DECAY_DATE":null,"PERIAPSIS":"537.594","MEAN_MOTION_DOT":"0.00002343","FILE":"3721442","COUNTRY_CODE":"US","SEMIMAJOR_AXIS":"6917.855","CENTER_NAME":"EARTH","MEAN_ANOMALY":"300.7748","APOAPSIS":"541.846","RCS_SIZE":"LARGE","TIME_SYSTEM":"UTC","MEAN_MOTION_DDOT":"0.0000000000000","RA_OF_ASC_NODE":"135.5744"},{"MEAN_ELEMENT_THEORY":"SGP4","PERIOD":"95.437","LAUNCH_DATE":"2022-02-03","NORAD_CAT_ID":"51463","MEAN_MOTION":"15.08846546","TLE_LINE1":"1 51463U 22010H   22358.68220561 -.00000158  00000-0  82180-5 0  9993","SITE":"AFETR","ELEMENT_SET_NO":"999","EPHEMERIS_TYPE":"0","OBJECT_ID":"2022-010H","GP_ID":"221381124","OBJECT_TYPE":"PAYLOAD","ECCENTRICITY":"0.00028530","OBJECT_NAME":"STARLINK-3419","TLE_LINE2":"2 51463  53.2161 135.9865 0002853  46.9995 313.1236 15.08846546 49735","ARG_OF_PERICENTER":"46.9995","REF_FRAME":"TEME","CLASSIFICATION_TYPE":"U","INCLINATION":"53.2161","EPOCH":"2022-12-24T16:22:22.564704","REV_AT_EPOCH":"4973","COUNTRY_CODE":"US","FILE":"3721442","MEAN_MOTION_DOT":"-0.00000158","PERIAPSIS":"537.752","DECAY_DATE":null,"BSTAR":"0.00000821800000","RA_OF_ASC_NODE":"135.9865","MEAN_MOTION_DDOT":"0.0000000000000","TIME_SYSTEM":"UTC","APOAPSIS":"541.699","RCS_SIZE":"LARGE","MEAN_ANOMALY":"313.1236","SEMIMAJOR_AXIS":"6917.860","CENTER_NAME":"EARTH"},{"EPOCH":"2022-12-24T18:24:16.188192","INCLINATION":"53.2150","REV_AT_EPOCH":"5055","MEAN_MOTION_DOT":"0.00001722","FILE":"3721442","COUNTRY_CODE":"US","DECAY_DATE":null,"BSTAR":"0.00012633000000","PERIAPSIS":"537.718","TIME_SYSTEM":"UTC","MEAN_MOTION_DDOT":"0.0000000000000","RA_OF_ASC_NODE":"135.6035","CENTER_NAME":"EARTH","SEMIMAJOR_AXIS":"6917.908","MEAN_ANOMALY":"313.8230","RCS_SIZE":"LARGE","APOAPSIS":"541.827","PERIOD":"95.438","MEAN_ELEMENT_THEORY":"SGP4","LAUNCH_DATE":"2022-02-03","NORAD_CAT_ID":"51464","MEAN_MOTION":"15.08831128","TLE_LINE1":"1 51464U 22010J   22358.76685403  .00001722  00000-0  12633-3 0  9994","OBJECT_ID":"2022-010J","EPHEMERIS_TYPE":"0","ELEMENT_SET_NO":"999","SITE":"AFETR","GP_ID":"221379873","ECCENTRICITY":"0.00029700","OBJECT_TYPE":"PAYLOAD","CLASSIFICATION_TYPE":"U","ARG_OF_PERICENTER":"46.3008","REF_FRAME":"TEME","TLE_LINE2":"2 51464  53.2150 135.6035 0002970  46.3008 313.8230 15.08831128 50552","OBJECT_NAME":"STARLINK-3189"},{"GP_ID":"221380123","EPHEMERIS_TYPE":"0","OBJECT_ID":"2022-010K","ELEMENT_SET_NO":"999","SITE":"AFETR","CLASSIFICATION_TYPE":"U","TLE_LINE2":"2 51465  53.2162 135.6270 0003407  52.4577 307.6724 15.08842875 50552","OBJECT_NAME":"STARLINK-3401","ARG_OF_PERICENTER":"52.4577","REF_FRAME":"TEME","ECCENTRICITY":"0.00034070","OBJECT_TYPE":"PAYLOAD","NORAD_CAT_ID":"51465","LAUNCH_DATE":"2022-02-03","PERIOD":"95.437","MEAN_ELEMENT_THEORY":"SGP4","TLE_LINE1":"1 51465U 22010K   22358.76316498  .00000087  00000-0  23587-4 0  9994","MEAN_MOTION":"15.08842875","CENTER_NAME":"EARTH","SEMIMAJOR_AXIS":"6917.872","MEAN_ANOMALY":"307.6724","RCS_SIZE":"LARGE","APOAPSIS":"542.094","MEAN_MOTION_DDOT":"0.0000000000000","TIME_SYSTEM":"UTC","RA_OF_ASC_NODE":"135.6270","REV_AT_EPOCH":"5055","INCLINATION":"53.2162","EPOCH":"2022-12-24T18:18:57.454272","PERIAPSIS":"537.380","BSTAR":"0.00002358700000","DECAY_DATE":null,"MEAN_MOTION_DOT":"0.00000087","COUNTRY_CODE":"US","FILE":"3721442"},{"LAUNCH_DATE":"2022-02-03","NORAD_CAT_ID":"51467","PERIOD":"95.437","MEAN_ELEMENT_THEORY":"SGP4","TLE_LINE1":"1 51467U 22010M   22358.67852289  .00000600  00000-0  55806-4 0  9999","MEAN_MOTION":"15.08842257","GP_ID":"221380874","OBJECT_ID":"2022-010M","EPHEMERIS_TYPE":"0","ELEMENT_SET_NO":"999","SITE":"AFETR","CLASSIFICATION_TYPE":"U","ARG_OF_PERICENTER":"51.1836","REF_FRAME":"TEME","TLE_LINE2":"2 51467  53.2174 136.0076 0003403  51.1836 308.9460 15.08842257 49739","OBJECT_NAME":"STARLINK-3178","ECCENTRICITY":"0.00034030","OBJECT_TYPE":"PAYLOAD","REV_AT_EPOCH":"4973","EPOCH":"2022-12-24T16:17:04.377696","INCLINATION":"53.2174","DECAY_DATE":null,"BSTAR":"0.00005580600000","PERIAPSIS":"537.384","MEAN_MOTION_DOT":"0.00000600","FILE":"3721442","COUNTRY_CODE":"US","CENTER_NAME":"EARTH","SEMIMAJOR_AXIS":"6917.873","MEAN_ANOMALY":"308.9460","RCS_SIZE":"LARGE","APOAPSIS":"542.093","TIME_SYSTEM":"UTC","MEAN_MOTION_DDOT":"0.0000000000000","RA_OF_ASC_NODE":"136.0076"},{"MEAN_MOTION_DDOT":"0.0000000000000","TIME_SYSTEM":"UTC","RA_OF_ASC_NODE":"135.9568","SEMIMAJOR_AXIS":"6917.859","MEAN_ANOMALY":"318.6481","CENTER_NAME":"EARTH","APOAPSIS":"541.751","RCS_SIZE":"LARGE","MEAN_MOTION_DOT":"0.00000978","COUNTRY_CODE":"US","FILE":"3721442","PERIAPSIS":"537.697","BSTAR":"0.00007956400000","DECAY_DATE":null,"INCLINATION":"53.2166","EPOCH":"2022-12-24T16:32:57.974496","REV_AT_EPOCH":"4973","ECCENTRICITY":"0.00029300","OBJECT_TYPE":"PAYLOAD","CLASSIFICATION_TYPE":"U","TLE_LINE2":"2 51468  53.2166 135.9568 0002930  41.4733 318.6481 15.08847098 49736","OBJECT_NAME":"STARLINK-3174","REF_FRAME":"TEME","ARG_OF_PERICENTER":"41.4733","EPHEMERIS_TYPE":"0","OBJECT_ID":"2022-010N","ELEMENT_SET_NO":"999","SITE":"AFETR","GP_ID":"221381624","MEAN_MOTION":"15.08847098","TLE_LINE1":"1 51468U 22010N   22358.68955989  .00000978  00000-0  79564-4 0  9997","PERIOD":"95.437","MEAN_ELEMENT_THEORY":"SGP4","NORAD_CAT_ID":"51468","LAUNCH_DATE":"2022-02-03"}];
